[{"OBJECT_NAME":"ONEWEB-0006","OBJECT_ID":"2019-010E","EPOCH":"2026-03-09T22:27:56.417760","MEAN_MOTION":13.15547208,"ECCENTRICITY":0.00017085,"INCLINATION":87.8948,"RA_OF_ASC_NODE":278.9955,"ARG_OF_PERICENTER":96.2783,"MEAN_ANOMALY":263.8542,"EPHEMERIS_TYPE":0,"CLASSIFICATION_TYPE":"U","NORAD_CAT_ID":44061,"ELEMENT_SET_NO":999,"REV_AT_EPOCH":33837,"BSTAR":3.6231669e-5,"MEAN_MOTION_DOT":2.6e-7,"MEAN_MOTION_DDOT":0},{"OBJECT_NAME":"YAOGAN-31 03B","OBJECT_ID":"2021-014C","EPOCH":"2026-03-10T00:24:01.951200","MEAN_MOTION":13.45442112,"ECCENTRICITY":0.01685902,"INCLINATION":63.4006,"RA_OF_ASC_NODE":93.5208,"ARG_OF_PERICENTER":0.5266,"MEAN_ANOMALY":359.5908,"EPHEMERIS_TYPE":0,"CLASSIFICATION_TYPE":"U","NORAD_CAT_ID":47693,"ELEMENT_SET_NO":999,"REV_AT_EPOCH":24733,"BSTAR":0.00044455044,"MEAN_MOTION_DOT":1.97e-6,"MEAN_MOTION_DDOT":0}]
